{"type": "FeatureCollection", "features": [ {"type": "Feature", "properties": {"norad_id": 32203, "name": "FENGYUN 1C DEB", "group": "fengyun-1c-debris", "lat": -61.46244437393438, "lon": 36.97022558648221, "alt_km": 503.3039554074312, "timestamp": "2025-12-04T05:42:43.658986+00:00", "meta": {"OBJECT_NAME": "FENGYUN 1C DEB", "OBJECT_ID": "1999-025CUZ", "EPOCH": "2025-12-03T03:43:09.125472", "MEAN_MOTION": 15.39646762, "ECCENTRICITY": 0.01471116, "INCLINATION": 97.0173, "RA_OF_ASC_NODE": 229.0233, "ARG_OF_PERICENTER": 126.0108, "MEAN_ANOMALY": 235.488, "EPHEMERIS_TYPE": 0, "CLASSIFICATION_TYPE": "U", "NORAD_CAT_ID": 32203, "ELEMENT_SET_NO": 999, "REV_AT_EPOCH": 74950, "BSTAR": 0.00079053984, "MEAN_MOTION_DOT": 0.00045869, "MEAN_MOTION_DDOT": 0}, "tle": {"line1": "1 32203U 99025CUZ 25337.15496673  .00045869  00000+0  79054-3 0  9995", "line2": "2 32203  97.0173 229.0233 0147111 126.0108 235.4880 15.39646762749507"}}, "geometry": {"type": "Point", "coordinates": [36.97022558648221, -61.46244437393438]}}, {"type": "Feature", "properties": {"norad_id": 32205, "name": "FENGYUN 1C DEB", "group": "fengyun-1c-debris", "lat": -38.79296289192572, "lon": -10.562246629108282, "alt_km": 845.0181195890782, "timestamp": "2025-12-04T05:42:43.658997+00:00", "meta": {"OBJECT_NAME": "FENGYUN 1C DEB", "OBJECT_ID": "1999-025CVB", "EPOCH": "2025-12-03T18:51:38.525184", "MEAN_MOTION": 14.13901782, "ECCENTRICITY": 0.00102944, "INCLINATION": 98.6784, "RA_OF_ASC_NODE": 341.9469, "ARG_OF_PERICENTER": 319.7737, "MEAN_ANOMALY": 220.8518, "EPHEMERIS_TYPE": 0, "CLASSIFICATION_TYPE": "U", "NORAD_CAT_ID": 32205, "ELEMENT_SET_NO": 999, "REV_AT_EPOCH": 94371, "BSTAR": 0.00024481357, "MEAN_MOTION_DOT": 4.22e-06, "MEAN_MOTION_DDOT": 0}, "tle": {"line1": "1 32205U 99025CVB 25337.78586256  .00000422  00000+0  24481-3 0  9993", "line2": "2 32205  98.6784 341.9469 0010294 319.7737 220.8518 14.13901782943711"}}, "geometry": {"type": "Point", "coordinates": [-10.562246629108282, -38.79296289192572]}}, {"type": "Feature", "properties": {"norad_id": 32209, "name": "FENGYUN 1C DEB", "group": "fengyun-1c-debris", "lat": 11.468248603918465, "lon": 108.07041931748702, "alt_km": 1209.2569404878632, "timestamp": "2025-12-04T05:42:43.659007+00:00", "meta": {"OBJECT_NAME": "FENGYUN 1C DEB", "OBJECT_ID": "1999-025CVF", "EPOCH": "2025-12-01T19:52:12.211968", "MEAN_MOTION": 13.47100658, "ECCENTRICITY": 0.03328885, "INCLINATION": 99.4197, "RA_OF_ASC_NODE": 283.8685, "ARG_OF_PERICENTER": 52.3889, "MEAN_ANOMALY": 310.6974, "EPHEMERIS_TYPE": 0, "CLASSIFICATION_TYPE": "U", "NORAD_CAT_ID": 32209, "ELEMENT_SET_NO": 999, "REV_AT_EPOCH": 89829, "BSTAR": 0.002968545, "MEAN_MOTION_DOT": 2.491e-05, "MEAN_MOTION_DDOT": 0}, "tle": {"line1": "1 32209U 99025CVF 25335.82791912  .00002491  00000+0  29685-2 0  9995", "line2": "2 32209  99.4197 283.8685 0332888  52.3889 310.6974 13.47100658898295"}}, "geometry": {"type": "Point", "coordinates": [108.07041931748702, 11.468248603918465]}}, {"type": "Feature", "properties": {"norad_id": 32212, "name": "FENGYUN 1C DEB", "group": "fengyun-1c-debris", "lat": 25.85121964481214, "lon": 69.23707838929157, "alt_km": 733.0823841234014, "timestamp": "2025-12-04T05:42:43.659017+00:00", "meta": {"OBJECT_NAME": "FENGYUN 1C DEB", "OBJECT_ID": "1999-025CVJ", "EPOCH": "2025-11-25T13:14:33.862848", "MEAN_MOTION": 14.40232074, "ECCENTRICITY": 0.01375663, "INCLINATION": 99.574, "RA_OF_ASC_NODE": 64.2206, "ARG_OF_PERICENTER": 128.3819, "MEAN_ANOMALY": 247.3372, "EPHEMERIS_TYPE": 0, "CLASSIFICATION_TYPE": "U", "NORAD_CAT_ID": 32212, "ELEMENT_SET_NO": 999, "REV_AT_EPOCH": 95814, "BSTAR": 0.00072151174, "MEAN_MOTION_DOT": 2.496e-05, "MEAN_MOTION_DDOT": 0}, "tle": {"line1": "1 32212U 99025CVJ 25329.55178082  .00002496  00000+0  72151-3 0  9991", "line2": "2 32212  99.5740  64.2206 0137566 128.3819 247.3372 14.40232074958148"}}, "geometry": {"type": "Point", "coordinates": [69.23707838929157, 25.85121964481214]}}, {"type": "Feature", "properties": {"norad_id": 32214, "name": "FENGYUN 1C DEB", "group": "fengyun-1c-debris", "lat": -57.29477209393118, "lon": 18.44365765964474, "alt_km": 1003.0316654543922, "timestamp": "2025-12-04T05:42:43.659027+00:00", "meta": {"OBJECT_NAME": "FENGYUN 1C DEB", "OBJECT_ID": "1999-025CVL", "EPOCH": "2025-12-03T13:25:47.618688", "MEAN_MOTION": 13.90370433, "ECCENTRICITY": 0.01890268, "INCLINATION": 99.0444, "RA_OF_ASC_NODE": 3.4212, "ARG_OF_PERICENTER": 64.2401, "MEAN_ANOMALY": 85.3412, "EPHEMERIS_TYPE": 0, "CLASSIFICATION_TYPE": "U", "NORAD_CAT_ID": 32214, "ELEMENT_SET_NO": 999, "REV_AT_EPOCH": 62294, "BSTAR": 0.0059831175, "MEAN_MOTION_DOT": 8.544e-05, "MEAN_MOTION_DDOT": 0}, "tle": {"line1": "1 32214U 99025CVL 25337.55957892  .00008544  00000+0  59831-2 0  9995", "line2": "2 32214  99.0444   3.4212 0189026  64.2401  85.3412 13.90370433622948"}}, "geometry": {"type": "Point", "coordinates": [18.44365765964474, -57.29477209393118]}}, {"type": "Feature", "properties": {"norad_id": 32218, "name": "FENGYUN 1C DEB", "group": "fengyun-1c-debris", "lat": -12.49150843195617, "lon": 173.6033963133448, "alt_km": 724.300516430023, "timestamp": "2025-12-04T05:42:43.659038+00:00", "meta": {"OBJECT_NAME": "FENGYUN 1C DEB", "OBJECT_ID": "1999-025CVQ", "EPOCH": "2025-12-03T11:45:48.179808", "MEAN_MOTION": 14.55381679, "ECCENTRICITY": 0.00631196, "INCLINATION": 98.8118, "RA_OF_ASC_NODE": 170.8455, "ARG_OF_PERICENTER": 95.3464, "MEAN_ANOMALY": 296.7511, "EPHEMERIS_TYPE": 0, "CLASSIFICATION_TYPE": "U", "NORAD_CAT_ID": 32218, "ELEMENT_SET_NO": 999, "REV_AT_EPOCH": 96098, "BSTAR": 0.0010699105, "MEAN_MOTION_DOT": 4.721e-05, "MEAN_MOTION_DDOT": 0}, "tle": {"line1": "1 32218U 99025CVQ 25337.49014097  .00004721  00000+0  10699-2 0  9995", "line2": "2 32218  98.8118 170.8455 0063119  95.3464 296.7511 14.55381679960986"}}, "geometry": {"type": "Point", "coordinates": [173.6033963133448, -12.49150843195617]}}, {"type": "Feature", "properties": {"norad_id": 32221, "name": "FENGYUN 1C DEB", "group": "fengyun-1c-debris", "lat": 42.08576303992438, "lon": -44.284074180606105, "alt_km": 608.3309056770195, "timestamp": "2025-12-04T05:42:43.659049+00:00", "meta": {"OBJECT_NAME": "FENGYUN 1C DEB", "OBJECT_ID": "1999-025CVT", "EPOCH": "2025-12-03T09:19:31.012896", "MEAN_MOTION": 14.5862414, "ECCENTRICITY": 0.01465468, "INCLINATION": 98.5648, "RA_OF_ASC_NODE": 127.0178, "ARG_OF_PERICENTER": 174.4778, "MEAN_ANOMALY": 185.8079, "EPHEMERIS_TYPE": 0, "CLASSIFICATION_TYPE": "U", "NORAD_CAT_ID": 32221, "ELEMENT_SET_NO": 999, "REV_AT_EPOCH": 97061, "BSTAR": 0.00066966693, "MEAN_MOTION_DOT": 3.563e-05, "MEAN_MOTION_DDOT": 0}, "tle": {"line1": "1 32221U 99025CVT 25337.38855339  .00003563  00000+0  66967-3 0  9992", "line2": "2 32221  98.5648 127.0178 0146546 174.4778 185.8079 14.58624140970618"}}, "geometry": {"type": "Point", "coordinates": [-44.284074180606105, 42.08576303992438]}}, {"type": "Feature", "properties": {"norad_id": 32223, "name": "FENGYUN 1C DEB", "group": "fengyun-1c-debris", "lat": 74.99714810409047, "lon": -87.2026975563571, "alt_km": 831.7996910475504, "timestamp": "2025-12-04T05:42:43.659059+00:00", "meta": {"OBJECT_NAME": "FENGYUN 1C DEB", "OBJECT_ID": "1999-025CVV", "EPOCH": "2025-12-03T10:55:28.371072", "MEAN_MOTION": 14.20810685, "ECCENTRICITY": 0.00466677, "INCLINATION": 98.8397, "RA_OF_ASC_NODE": 56.5179, "ARG_OF_PERICENTER": 345.0061, "MEAN_ANOMALY": 74.8726, "EPHEMERIS_TYPE": 0, "CLASSIFICATION_TYPE": "U", "NORAD_CAT_ID": 32223, "ELEMENT_SET_NO": 999, "REV_AT_EPOCH": 64092, "BSTAR": 0.0018929576, "MEAN_MOTION_DOT": 4.091e-05, "MEAN_MOTION_DDOT": 0}, "tle": {"line1": "1 32223U 99025CVV 25337.45518948  .00004091  00000+0  18930-2 0  9997", "line2": "2 32223  98.8397  56.5179 0046667 345.0061  74.8726 14.20810685640929"}}, "geometry": {"type": "Point", "coordinates": [-87.2026975563571, 74.99714810409047]}}, {"type": "Feature", "properties": {"norad_id": 32224, "name": "FENGYUN 1C DEB", "group": "fengyun-1c-debris", "lat": 7.569367038267451, "lon": 110.12582749677014, "alt_km": 771.5027197741992, "timestamp": "2025-12-04T05:42:43.659069+00:00", "meta": {"OBJECT_NAME": "FENGYUN 1C DEB", "OBJECT_ID": "1999-025CVW", "EPOCH": "2025-12-02T07:42:20.079072", "MEAN_MOTION": 14.33989885, "ECCENTRICITY": 0.00771432, "INCLINATION": 98.9822, "RA_OF_ASC_NODE": 286.9314, "ARG_OF_PERICENTER": 96.5488, "MEAN_ANOMALY": 264.4485, "EPHEMERIS_TYPE": 0, "CLASSIFICATION_TYPE": "U", "NORAD_CAT_ID": 32224, "ELEMENT_SET_NO": 999, "REV_AT_EPOCH": 95574, "BSTAR": 0.00039198885, "MEAN_MOTION_DOT": 1.084e-05, "MEAN_MOTION_DDOT": 0}, "tle": {"line1": "1 32224U 99025CVW 25336.32106573  .00001084  00000+0  39199-3 0  9990", "line2": "2 32224  98.9822 286.9314 0077143  96.5488 264.4485 14.33989885955749"}}, "geometry": {"type": "Point", "coordinates": [110.12582749677014, 7.569367038267451]}}, {"type": "Feature", "properties": {"norad_id": 32225, "name": "FENGYUN 1C DEB", "group": "fengyun-1c-debris", "lat": 46.87238919601977, "lon": 16.92392840232632, "alt_km": 896.3128128679118, "timestamp": "2025-12-04T05:42:43.659084+00:00", "meta": {"OBJECT_NAME": "FENGYUN 1C DEB", "OBJECT_ID": "1999-025CVX", "EPOCH": "2025-12-02T09:17:58.336800", "MEAN_MOTION": 14.13030511, "ECCENTRICITY": 0.00713215, "INCLINATION": 99.0934, "RA_OF_ASC_NODE": 24.8898, "ARG_OF_PERICENTER": 235.8131, "MEAN_ANOMALY": 123.6266, "EPHEMERIS_TYPE": 0, "CLASSIFICATION_TYPE": "U", "NORAD_CAT_ID": 32225, "ELEMENT_SET_NO": 999, "REV_AT_EPOCH": 67970, "BSTAR": 0.00030097544, "MEAN_MOTION_DOT": 5.29e-06, "MEAN_MOTION_DDOT": 0}, "tle": {"line1": "1 32225U 99025CVX 25336.38748075  .00000529  00000+0  30098-3 0  9998", "line2": "2 32225  99.0934  24.8898 0071321 235.8131 123.6266 14.13030511679700"}}, "geometry": {"type": "Point", "coordinates": [16.92392840232632, 46.87238919601977]}}]}